{"type": "FeatureCollection", "features": [ {"type": "Feature", "properties": {"norad_id": 33492, "name": "GOSAT (IBUKI)", "group": "resource", "lat": 54.578094468710226, "lon": -78.6414904096896, "alt_km": 663.3130140369394, "timestamp": "2025-12-07T03:52:32.126690+00:00", "meta": {"OBJECT_NAME": "GOSAT (IBUKI)", "OBJECT_ID": "2009-002A", "EPOCH": "2025-12-06T14:13:08.846400", "MEAN_MOTION": 14.67536449, "ECCENTRICITY": 9.125e-05, "INCLINATION": 98.0767, "RA_OF_ASC_NODE": 89.2809, "ARG_OF_PERICENTER": 81.3926, "MEAN_ANOMALY": 278.7382, "EPHEMERIS_TYPE": 0, "CLASSIFICATION_TYPE": "U", "NORAD_CAT_ID": 33492, "ELEMENT_SET_NO": 999, "REV_AT_EPOCH": 90321, "BSTAR": 0.00032130508, "MEAN_MOTION_DOT": 1.774e-05, "MEAN_MOTION_DDOT": 0}, "tle": {"line1": "1 33492U 09002A   25340.59246350  .00001774  00000+0  32131-3 0  9991", "line2": "2 33492  98.0767  89.2809 0000912  81.3926 278.7382 14.67536449903218"}}, "geometry": {"type": "Point", "coordinates": [-78.6414904096896, 54.578094468710226]}}, {"type": "Feature", "properties": {"norad_id": 35681, "name": "DEIMOS-1", "group": "resource", "lat": 53.30687566522706, "lon": 131.54291773614514, "alt_km": 638.8180176799497, "timestamp": "2025-12-07T03:52:32.126702+00:00", "meta": {"OBJECT_NAME": "DEIMOS-1", "OBJECT_ID": "2009-041A", "EPOCH": "2025-12-06T14:36:22.252032", "MEAN_MOTION": 14.74938257, "ECCENTRICITY": 0.00026899, "INCLINATION": 97.7153, "RA_OF_ASC_NODE": 141.4978, "ARG_OF_PERICENTER": 91.6314, "MEAN_ANOMALY": 268.5204, "EPHEMERIS_TYPE": 0, "CLASSIFICATION_TYPE": "U", "NORAD_CAT_ID": 35681, "ELEMENT_SET_NO": 999, "REV_AT_EPOCH": 87849, "BSTAR": 0.00020547156, "MEAN_MOTION_DOT": 1.333e-05, "MEAN_MOTION_DDOT": 0}, "tle": {"line1": "1 35681U 09041A   25340.60859088  .00001333  00000+0  20547-3 0  9995", "line2": "2 35681  97.7153 141.4978 0002689  91.6314 268.5204 14.74938257878493"}}, "geometry": {"type": "Point", "coordinates": [131.54291773614514, 53.30687566522706]}}, {"type": "Feature", "properties": {"norad_id": 35682, "name": "DUBAISAT-1", "group": "resource", "lat": -4.093865901001542, "lon": 112.49880301038402, "alt_km": 643.5635732687106, "timestamp": "2025-12-07T03:52:32.126714+00:00", "meta": {"OBJECT_NAME": "DUBAISAT-1", "OBJECT_ID": "2009-041B", "EPOCH": "2025-12-06T14:51:56.601504", "MEAN_MOTION": 14.74577225, "ECCENTRICITY": 0.00098996, "INCLINATION": 97.979, "RA_OF_ASC_NODE": 111.3897, "ARG_OF_PERICENTER": 335.7467, "MEAN_ANOMALY": 24.3274, "EPHEMERIS_TYPE": 0, "CLASSIFICATION_TYPE": "U", "NORAD_CAT_ID": 35682, "ELEMENT_SET_NO": 999, "REV_AT_EPOCH": 87671, "BSTAR": 0.00041114879, "MEAN_MOTION_DOT": 2.69e-05, "MEAN_MOTION_DDOT": 0}, "tle": {"line1": "1 35682U 09041B   25340.61940511  .00002690  00000+0  41115-3 0  9990", "line2": "2 35682  97.9790 111.3897 0009899 335.7467  24.3274 14.74577225876712"}}, "geometry": {"type": "Point", "coordinates": [112.49880301038402, -4.093865901001542]}}, {"type": "Feature", "properties": {"norad_id": 35931, "name": "OCEANSAT-2", "group": "resource", "lat": -55.98559548292931, "lon": 149.95590502316176, "alt_km": 914.0783284921908, "timestamp": "2025-12-07T03:52:32.126725+00:00", "meta": {"OBJECT_NAME": "OCEANSAT-2", "OBJECT_ID": "2009-051A", "EPOCH": "2025-12-06T14:44:18.370464", "MEAN_MOTION": 13.99626034, "ECCENTRICITY": 0.00164578, "INCLINATION": 98.2227, "RA_OF_ASC_NODE": 341.836, "ARG_OF_PERICENTER": 60.9941, "MEAN_ANOMALY": 299.2873, "EPHEMERIS_TYPE": 0, "CLASSIFICATION_TYPE": "U", "NORAD_CAT_ID": 35931, "ELEMENT_SET_NO": 999, "REV_AT_EPOCH": 85239, "BSTAR": -7.6944124e-05, "MEAN_MOTION_DOT": -1.5e-06, "MEAN_MOTION_DDOT": 0}, "tle": {"line1": "1 35931U 09051A   25340.61410151 -.00000150  00000+0 -76944-4 0  9990", "line2": "2 35931  98.2227 341.8360 0016457  60.9941 299.2873 13.99626034852390"}}, "geometry": {"type": "Point", "coordinates": [149.95590502316176, -55.98559548292931]}}, {"type": "Feature", "properties": {"norad_id": 35946, "name": "WORLDVIEW-2 (WV-2)", "group": "resource", "lat": -44.395448036680634, "lon": 60.71973769033071, "alt_km": 775.1638729997003, "timestamp": "2025-12-07T03:52:32.126736+00:00", "meta": {"OBJECT_NAME": "WORLDVIEW-2 (WV-2)", "OBJECT_ID": "2009-055A", "EPOCH": "2025-12-06T14:43:18.516864", "MEAN_MOTION": 14.37648538, "ECCENTRICITY": 0.00054083, "INCLINATION": 98.4767, "RA_OF_ASC_NODE": 51.7832, "ARG_OF_PERICENTER": 81.6399, "MEAN_ANOMALY": 278.5401, "EPHEMERIS_TYPE": 0, "CLASSIFICATION_TYPE": "U", "NORAD_CAT_ID": 35946, "ELEMENT_SET_NO": 999, "REV_AT_EPOCH": 84797, "BSTAR": 0.00014444491, "MEAN_MOTION_DOT": 3.9e-06, "MEAN_MOTION_DDOT": 0}, "tle": {"line1": "1 35946U 09055A   25340.61340876  .00000390  00000+0  14444-3 0  9996", "line2": "2 35946  98.4767  51.7832 0005408  81.6399 278.5401 14.37648538847970"}}, "geometry": {"type": "Point", "coordinates": [60.71973769033071, -44.395448036680634]}}, {"type": "Feature", "properties": {"norad_id": 36036, "name": "SMOS", "group": "resource", "lat": -50.34970053196522, "lon": 176.61126650154563, "alt_km": 766.8165413364259, "timestamp": "2025-12-07T03:52:32.126747+00:00", "meta": {"OBJECT_NAME": "SMOS", "OBJECT_ID": "2009-059A", "EPOCH": "2025-12-06T06:25:45.772896", "MEAN_MOTION": 14.39732741, "ECCENTRICITY": 0.0001133, "INCLINATION": 98.4387, "RA_OF_ASC_NODE": 165.4122, "ARG_OF_PERICENTER": 84.8118, "MEAN_ANOMALY": 275.3199, "EPHEMERIS_TYPE": 0, "CLASSIFICATION_TYPE": "U", "NORAD_CAT_ID": 36036, "ELEMENT_SET_NO": 999, "REV_AT_EPOCH": 84569, "BSTAR": 0.00026315864, "MEAN_MOTION_DOT": 7.81e-06, "MEAN_MOTION_DDOT": 0}, "tle": {"line1": "1 36036U 09059A   25340.26789089  .00000781  00000+0  26316-3 0  9990", "line2": "2 36036  98.4387 165.4122 0001133  84.8118 275.3199 14.39732741845697"}}, "geometry": {"type": "Point", "coordinates": [176.61126650154563, -50.34970053196522]}}, {"type": "Feature", "properties": {"norad_id": 36110, "name": "YAOGAN-7", "group": "resource", "lat": 81.60808309628062, "lon": 116.06869245921835, "alt_km": 643.6921593293546, "timestamp": "2025-12-07T03:52:32.126757+00:00", "meta": {"OBJECT_NAME": "YAOGAN-7", "OBJECT_ID": "2009-069A", "EPOCH": "2025-12-06T14:27:27.337536", "MEAN_MOTION": 14.77718454, "ECCENTRICITY": 0.00235985, "INCLINATION": 98.0303, "RA_OF_ASC_NODE": 222.3811, "ARG_OF_PERICENTER": 302.1734, "MEAN_ANOMALY": 57.7188, "EPHEMERIS_TYPE": 0, "CLASSIFICATION_TYPE": "U", "NORAD_CAT_ID": 36110, "ELEMENT_SET_NO": 999, "REV_AT_EPOCH": 86118, "BSTAR": 0.00019469662, "MEAN_MOTION_DOT": 1.348e-05, "MEAN_MOTION_DDOT": 0}, "tle": {"line1": "1 36110U 09069A   25340.60239974  .00001348  00000+0  19470-3 0  9998", "line2": "2 36110  98.0303 222.3811 0023598 302.1734  57.7188 14.77718454861180"}}, "geometry": {"type": "Point", "coordinates": [116.06869245921835, 81.60808309628062]}}, {"type": "Feature", "properties": {"norad_id": 36605, "name": "TANDEM-X", "group": "resource", "lat": -47.15643311921229, "lon": 158.51765629459538, "alt_km": 516.2610664758686, "timestamp": "2025-12-07T03:52:32.126769+00:00", "meta": {"OBJECT_NAME": "TANDEM-X", "OBJECT_ID": "2010-030A", "EPOCH": "2025-12-06T14:13:48.617184", "MEAN_MOTION": 15.19146828, "ECCENTRICITY": 0.00021111, "INCLINATION": 97.4449, "RA_OF_ASC_NODE": 346.063, "ARG_OF_PERICENTER": 96.3345, "MEAN_ANOMALY": 263.813, "EPHEMERIS_TYPE": 0, "CLASSIFICATION_TYPE": "U", "NORAD_CAT_ID": 36605, "ELEMENT_SET_NO": 999, "REV_AT_EPOCH": 85740, "BSTAR": 0.00017045926, "MEAN_MOTION_DOT": 3.514e-05, "MEAN_MOTION_DDOT": 0}, "tle": {"line1": "1 36605U 10030A   25340.59292381  .00003514  00000+0  17046-3 0  9990", "line2": "2 36605  97.4449 346.0630 0002111  96.3345 263.8130 15.19146828857408"}}, "geometry": {"type": "Point", "coordinates": [158.51765629459538, -47.15643311921229]}}, {"type": "Feature", "properties": {"norad_id": 36795, "name": "CARTOSAT-2B", "group": "resource", "lat": -1.3106069945935428, "lon": 30.5523233980064, "alt_km": 637.1716926205236, "timestamp": "2025-12-07T03:52:32.126780+00:00", "meta": {"OBJECT_NAME": "CARTOSAT-2B", "OBJECT_ID": "2010-035A", "EPOCH": "2025-12-06T14:53:23.714304", "MEAN_MOTION": 14.78775322, "ECCENTRICITY": 0.00129122, "INCLINATION": 97.7861, "RA_OF_ASC_NODE": 29.8494, "ARG_OF_PERICENTER": 95.6448, "MEAN_ANOMALY": 264.6236, "EPHEMERIS_TYPE": 0, "CLASSIFICATION_TYPE": "U", "NORAD_CAT_ID": 36795, "ELEMENT_SET_NO": 999, "REV_AT_EPOCH": 83139, "BSTAR": 0.00021102905, "MEAN_MOTION_DOT": 1.503e-05, "MEAN_MOTION_DDOT": 0}, "tle": {"line1": "1 36795U 10035A   25340.62041336  .00001503  00000+0  21103-3 0  9996", "line2": "2 36795  97.7861  29.8494 0012912  95.6448 264.6236 14.78775322831396"}}, "geometry": {"type": "Point", "coordinates": [30.5523233980064, -1.3106069945935428]}}, {"type": "Feature", "properties": {"norad_id": 36834, "name": "YAOGAN-10", "group": "resource", "lat": -37.407938277977365, "lon": 7.131005964946047, "alt_km": 621.8637251357059, "timestamp": "2025-12-07T03:52:32.126792+00:00", "meta": {"OBJECT_NAME": "YAOGAN-10", "OBJECT_ID": "2010-038A", "EPOCH": "2025-12-06T15:37:00.472224", "MEAN_MOTION": 14.84572728, "ECCENTRICITY": 0.00015026, "INCLINATION": 97.9142, "RA_OF_ASC_NODE": 0.517, "ARG_OF_PERICENTER": 84.4933, "MEAN_ANOMALY": 29.5975, "EPHEMERIS_TYPE": 0, "CLASSIFICATION_TYPE": "U", "NORAD_CAT_ID": 36834, "ELEMENT_SET_NO": 999, "REV_AT_EPOCH": 82863, "BSTAR": 0.00040765809, "MEAN_MOTION_DOT": 3.388e-05, "MEAN_MOTION_DDOT": 0}, "tle": {"line1": "1 36834U 10038A   25340.65069991  .00003388  00000+0  40766-3 0  9992", "line2": "2 36834  97.9142   0.5170 0001502  84.4933  29.5975 14.84572728828632"}}, "geometry": {"type": "Point", "coordinates": [7.131005964946047, -37.407938277977365]}}]}